FALCONSAT-10            
1 58291U 23174AM  26068.70247784  .00006748  00000+0  25969-3 0  9991
2 58291  97.3865 145.7938 0008932 169.5942 190.5483 15.26670596129582
STARLINK-31747          
1 59564U 24076A   26068.15734306 -.00002118  00000+0 -67479-4 0  9999
2 59564  43.0044   1.4223 0002300 246.2125 113.8486 15.27569115106533
